IDEFIX & ARIANE 42P R/B 
1 27422U 02021B   26002.76995317  .00000648  00000+0  26302-3 0  9992
2 27422  98.5807 302.1904 0012367  26.1804 334.0002 14.30969776234592
AQUA                    
1 27424U 02022A   25365.92641127  .00002078  00000+0  42628-3 0  9999
2 27424  98.4058 327.1196 0001962  94.7781 340.6230 14.61783896258835
CZ-4B R/B               
1 27432U 02024C   26002.80578620  .00000142  00000+0  96208-4 0  9997
2 27432  98.8967  56.5008 0049739 209.2527 266.1337 14.14533221219927
MIDORI II (ADEOS-II)    
1 27597U 02056A   26002.78790068  .00000704  00000+0  29486-3 0  9990
2 27597  98.7662 320.8578 0001202 136.8089 223.3186 14.29225440200889
H-2A R/B                
1 27601U 02056E   26002.75811112  .00000839  00000+0  30860-3 0  9994
2 27601  98.3092 325.6814 0070378 359.0416  65.6783 14.33700226204662
CZ-4B R/B               
1 28059U 03049C   26002.50245425  .00000917  00000+0  22147-3 0  9992
2 28059  98.6803 354.8524 0049296  74.0302 286.6317 14.54934675176978
CZ-2C R/B               
1 28222U 04012C   26002.69988874  .00061199  00000+0  82847-3 0  9999
2 28222  97.7383  62.0755 0016616 189.8315 170.2617 15.57350049193988
SL-16 R/B               
1 28353U 04021B   26002.76484094  .00000435  00000+0  25118-3 0  9991
2 28353  71.0013  10.8413 0004054 164.8790 195.2454 14.14586447113515
CZ-4B R/B               
1 28415U 04035C   26002.65454057  .00013541  00000+0  49384-3 0  9992
2 28415  97.3580  37.7220 0032331 200.2240 159.7721 15.27776269169827
CZ-2C R/B               
1 28480U 04046B   26002.78430792  .00000604  00000+0  23977-3 0  9996
2 28480  98.1998 281.8557 0139350 350.2659   9.5828 14.26957843 99105
ARIANE 5 R/B            
1 28499U 04049H   26002.47279438  .00002923  00000+0  32821-3 0  9997
2 28499  98.2526 168.4999 0083947 204.9822 154.7319 14.85082209135963
CZ-2D R/B               
1 28738U 05024B   26002.78060632  .00047459  00000+0  71555-3 0  9995
2 28738  97.3617  15.7979 0003080 258.3331 101.7578 15.54638988129522
