CCSDS_OMM_VERS = 2.0
CREATION_DATE  = 
ORIGINATOR     = 

OBJECT_NAME    = IDEFIX & ARIANE 42P R/B
OBJECT_ID      = 2002-021B
CENTER_NAME    = EARTH
REF_FRAME      = TEME
TIME_SYSTEM    = UTC
MEAN_ELEMENT_THEORY = SGP/SGP4

EPOCH          = 2026-01-02T18:28:43.953888
MEAN_MOTION    = 14.30969776
ECCENTRICITY   = .0012367
INCLINATION    = 98.5807
RA_OF_ASC_NODE = 302.1904
ARG_OF_PERICENTER = 26.1804
MEAN_ANOMALY   = 334.0002

EPHEMERIS_TYPE = 0
CLASSIFICATION_TYPE = U
NORAD_CAT_ID   = 27422
ELEMENT_SET_NO = 999
REV_AT_EPOCH   = 23459
BSTAR          = .26302E-3
MEAN_MOTION_DOT = .648E-5
MEAN_MOTION_DDOT = 0

CCSDS_OMM_VERS = 2.0
CREATION_DATE  = 
ORIGINATOR     = 

OBJECT_NAME    = AQUA
OBJECT_ID      = 2002-022A
CENTER_NAME    = EARTH
REF_FRAME      = TEME
TIME_SYSTEM    = UTC
MEAN_ELEMENT_THEORY = SGP/SGP4

EPOCH          = 2025-12-31T22:14:01.933728
MEAN_MOTION    = 14.61783896
ECCENTRICITY   = .0001962
INCLINATION    = 98.4058
RA_OF_ASC_NODE = 327.1196
ARG_OF_PERICENTER = 94.7781
MEAN_ANOMALY   = 340.6230

EPHEMERIS_TYPE = 0
CLASSIFICATION_TYPE = U
NORAD_CAT_ID   = 27424
ELEMENT_SET_NO = 999
REV_AT_EPOCH   = 25883
BSTAR          = .42628E-3
MEAN_MOTION_DOT = .2078E-4
MEAN_MOTION_DDOT = 0

CCSDS_OMM_VERS = 2.0
CREATION_DATE  = 
ORIGINATOR     = 

OBJECT_NAME    = CZ-4B R/B
OBJECT_ID      = 2002-024C
CENTER_NAME    = EARTH
REF_FRAME      = TEME
TIME_SYSTEM    = UTC
MEAN_ELEMENT_THEORY = SGP/SGP4

EPOCH          = 2026-01-02T19:20:19.927680
MEAN_MOTION    = 14.14533221
ECCENTRICITY   = .0049739
INCLINATION    = 98.8967
RA_OF_ASC_NODE = 56.5008
ARG_OF_PERICENTER = 209.2527
MEAN_ANOMALY   = 266.1337

EPHEMERIS_TYPE = 0
CLASSIFICATION_TYPE = U
NORAD_CAT_ID   = 27432
ELEMENT_SET_NO = 999
REV_AT_EPOCH   = 21992
BSTAR          = .96208E-4
MEAN_MOTION_DOT = .142E-5
MEAN_MOTION_DDOT = 0

CCSDS_OMM_VERS = 2.0
CREATION_DATE  = 
ORIGINATOR     = 

OBJECT_NAME    = MIDORI II (ADEOS-II)
OBJECT_ID      = 2002-056A
CENTER_NAME    = EARTH
REF_FRAME      = TEME
TIME_SYSTEM    = UTC
MEAN_ELEMENT_THEORY = SGP/SGP4

EPOCH          = 2026-01-02T18:54:34.618752
MEAN_MOTION    = 14.29225440
ECCENTRICITY   = .0001202
INCLINATION    = 98.7662
RA_OF_ASC_NODE = 320.8578
ARG_OF_PERICENTER = 136.8089
MEAN_ANOMALY   = 223.3186

EPHEMERIS_TYPE = 0
CLASSIFICATION_TYPE = U
NORAD_CAT_ID   = 27597
ELEMENT_SET_NO = 999
REV_AT_EPOCH   = 20088
BSTAR          = .29486E-3
MEAN_MOTION_DOT = .704E-5
MEAN_MOTION_DDOT = 0

CCSDS_OMM_VERS = 2.0
CREATION_DATE  = 
ORIGINATOR     = 

OBJECT_NAME    = H-2A R/B
OBJECT_ID      = 2002-056E
CENTER_NAME    = EARTH
REF_FRAME      = TEME
TIME_SYSTEM    = UTC
MEAN_ELEMENT_THEORY = SGP/SGP4

EPOCH          = 2026-01-02T18:11:40.800768
MEAN_MOTION    = 14.33700226
ECCENTRICITY   = .0070378
INCLINATION    = 98.3092
RA_OF_ASC_NODE = 325.6814
ARG_OF_PERICENTER = 359.0416
MEAN_ANOMALY   = 65.6783

EPHEMERIS_TYPE = 0
CLASSIFICATION_TYPE = U
NORAD_CAT_ID   = 27601
ELEMENT_SET_NO = 999
REV_AT_EPOCH   = 20466
BSTAR          = .3086E-3
MEAN_MOTION_DOT = .839E-5
MEAN_MOTION_DDOT = 0

CCSDS_OMM_VERS = 2.0
CREATION_DATE  = 
ORIGINATOR     = 

OBJECT_NAME    = CZ-4B R/B
OBJECT_ID      = 2003-049C
CENTER_NAME    = EARTH
REF_FRAME      = TEME
TIME_SYSTEM    = UTC
MEAN_ELEMENT_THEORY = SGP/SGP4

EPOCH          = 2026-01-02T12:03:32.047200
MEAN_MOTION    = 14.54934675
ECCENTRICITY   = .0049296
INCLINATION    = 98.6803
RA_OF_ASC_NODE = 354.8524
ARG_OF_PERICENTER = 74.0302
MEAN_ANOMALY   = 286.6317

EPHEMERIS_TYPE = 0
CLASSIFICATION_TYPE = U
NORAD_CAT_ID   = 28059
ELEMENT_SET_NO = 999
REV_AT_EPOCH   = 17697
BSTAR          = .22147E-3
MEAN_MOTION_DOT = .917E-5
MEAN_MOTION_DDOT = 0

CCSDS_OMM_VERS = 2.0
CREATION_DATE  = 
ORIGINATOR     = 

OBJECT_NAME    = CZ-2C R/B
OBJECT_ID      = 2004-012C
CENTER_NAME    = EARTH
REF_FRAME      = TEME
TIME_SYSTEM    = UTC
MEAN_ELEMENT_THEORY = SGP/SGP4

EPOCH          = 2026-01-02T16:47:50.387136
MEAN_MOTION    = 15.57350049
ECCENTRICITY   = .0016616
INCLINATION    = 97.7383
RA_OF_ASC_NODE = 62.0755
ARG_OF_PERICENTER = 189.8315
MEAN_ANOMALY   = 170.2617

EPHEMERIS_TYPE = 0
CLASSIFICATION_TYPE = U
NORAD_CAT_ID   = 28222
ELEMENT_SET_NO = 999
REV_AT_EPOCH   = 19398
BSTAR          = .82847E-3
MEAN_MOTION_DOT = .61199E-3
MEAN_MOTION_DDOT = 0

CCSDS_OMM_VERS = 2.0
CREATION_DATE  = 
ORIGINATOR     = 

OBJECT_NAME    = SL-16 R/B
OBJECT_ID      = 2004-021B
CENTER_NAME    = EARTH
REF_FRAME      = TEME
TIME_SYSTEM    = UTC
MEAN_ELEMENT_THEORY = SGP/SGP4

EPOCH          = 2026-01-02T18:21:22.257216
MEAN_MOTION    = 14.14586447
ECCENTRICITY   = .0004054
INCLINATION    = 71.0013
RA_OF_ASC_NODE = 10.8413
ARG_OF_PERICENTER = 164.8790
MEAN_ANOMALY   = 195.2454

EPHEMERIS_TYPE = 0
CLASSIFICATION_TYPE = U
NORAD_CAT_ID   = 28353
ELEMENT_SET_NO = 999
REV_AT_EPOCH   = 11351
BSTAR          = .25118E-3
MEAN_MOTION_DOT = .435E-5
MEAN_MOTION_DDOT = 0

CCSDS_OMM_VERS = 2.0
CREATION_DATE  = 
ORIGINATOR     = 

OBJECT_NAME    = CZ-4B R/B
OBJECT_ID      = 2004-035C
CENTER_NAME    = EARTH
REF_FRAME      = TEME
TIME_SYSTEM    = UTC
MEAN_ELEMENT_THEORY = SGP/SGP4

EPOCH          = 2026-01-02T15:42:32.305248
MEAN_MOTION    = 15.27776269
ECCENTRICITY   = .0032331
INCLINATION    = 97.3580
RA_OF_ASC_NODE = 37.7220
ARG_OF_PERICENTER = 200.2240
MEAN_ANOMALY   = 159.7721

EPHEMERIS_TYPE = 0
CLASSIFICATION_TYPE = U
NORAD_CAT_ID   = 28415
ELEMENT_SET_NO = 999
REV_AT_EPOCH   = 16982
BSTAR          = .49384E-3
MEAN_MOTION_DOT = .13541E-3
MEAN_MOTION_DDOT = 0

CCSDS_OMM_VERS = 2.0
CREATION_DATE  = 
ORIGINATOR     = 

OBJECT_NAME    = CZ-2C R/B
OBJECT_ID      = 2004-046B
CENTER_NAME    = EARTH
REF_FRAME      = TEME
TIME_SYSTEM    = UTC
MEAN_ELEMENT_THEORY = SGP/SGP4

EPOCH          = 2026-01-02T18:49:24.204288
MEAN_MOTION    = 14.26957843
ECCENTRICITY   = .013935
INCLINATION    = 98.1998
RA_OF_ASC_NODE = 281.8557
ARG_OF_PERICENTER = 350.2659
MEAN_ANOMALY   = 9.5828

EPHEMERIS_TYPE = 0
CLASSIFICATION_TYPE = U
NORAD_CAT_ID   = 28480
ELEMENT_SET_NO = 999
REV_AT_EPOCH   = 9910
BSTAR          = .23977E-3
MEAN_MOTION_DOT = .604E-5
MEAN_MOTION_DDOT = 0

CCSDS_OMM_VERS = 2.0
CREATION_DATE  = 
ORIGINATOR     = 

OBJECT_NAME    = ARIANE 5 R/B
OBJECT_ID      = 2004-049H
CENTER_NAME    = EARTH
REF_FRAME      = TEME
TIME_SYSTEM    = UTC
MEAN_ELEMENT_THEORY = SGP/SGP4

EPOCH          = 2026-01-02T11:20:49.434432
MEAN_MOTION    = 14.85082209
ECCENTRICITY   = .0083947
INCLINATION    = 98.2526
RA_OF_ASC_NODE = 168.4999
ARG_OF_PERICENTER = 204.9822
MEAN_ANOMALY   = 154.7319

EPHEMERIS_TYPE = 0
CLASSIFICATION_TYPE = U
NORAD_CAT_ID   = 28499
ELEMENT_SET_NO = 999
REV_AT_EPOCH   = 13596
BSTAR          = .32821E-3
MEAN_MOTION_DOT = .2923E-4
MEAN_MOTION_DDOT = 0

CCSDS_OMM_VERS = 2.0
CREATION_DATE  = 
ORIGINATOR     = 

OBJECT_NAME    = CZ-2D R/B
OBJECT_ID      = 2005-024B
CENTER_NAME    = EARTH
REF_FRAME      = TEME
TIME_SYSTEM    = UTC
MEAN_ELEMENT_THEORY = SGP/SGP4

EPOCH          = 2026-01-02T18:44:04.386048
MEAN_MOTION    = 15.54638988
ECCENTRICITY   = .000308
INCLINATION    = 97.3617
RA_OF_ASC_NODE = 15.7979
ARG_OF_PERICENTER = 258.3331
MEAN_ANOMALY   = 101.7578

EPHEMERIS_TYPE = 0
CLASSIFICATION_TYPE = U
NORAD_CAT_ID   = 28738
ELEMENT_SET_NO = 999
REV_AT_EPOCH   = 12952
BSTAR          = .71555E-3
MEAN_MOTION_DOT = .47459E-3
MEAN_MOTION_DDOT = 0

